COSMOS 2251 DEB         
1 34997U 93036AFV 17345.53243366  .00000583  00000-0  23014-3 0  9994
2 34997  73.8884 290.4985 0120221 140.2271 220.7768 14.27357477289114
